{"type": "FeatureCollection", "features": [ {"type": "Feature", "properties": {"norad_id": 66588, "name": "STARLINK-36076", "group": "last-30-days", "lat": -40.23679544243667, "lon": 127.25250264970984, "alt_km": 437.75594471024397, "timestamp": "2025-12-12T18:57:42.885756+00:00", "meta": {"OBJECT_NAME": "STARLINK-36076", "OBJECT_ID": "2025-270A", "EPOCH": "2025-12-12T06:00:00.999648", "MEAN_MOTION": 15.45980255, "ECCENTRICITY": 0.00012976, "INCLINATION": 42.9997, "RA_OF_ASC_NODE": 195.6227, "ARG_OF_PERICENTER": 269.8695, "MEAN_ANOMALY": 251.8633, "EPHEMERIS_TYPE": 0, "CLASSIFICATION_TYPE": "U", "NORAD_CAT_ID": 66588, "ELEMENT_SET_NO": 999, "REV_AT_EPOCH": 432, "BSTAR": -0.047349924, "MEAN_MOTION_DOT": -0.0209681, "MEAN_MOTION_DDOT": 0}, "tle": {"line1": "1 66588U 25270A   25346.25001157 -.02096810  00000+0 -47350-1 0  9997", "line2": "2 66588  42.9997 195.6227 0001297 269.8695 251.8633 15.45980255  4322"}}, "geometry": {"type": "Point", "coordinates": [127.25250264970984, -40.23679544243667]}}, {"type": "Feature", "properties": {"norad_id": 66589, "name": "STARLINK-35447", "group": "last-30-days", "lat": -30.24633869142858, "lon": 153.69500926509275, "alt_km": 416.72389232250316, "timestamp": "2025-12-12T18:57:42.885766+00:00", "meta": {"OBJECT_NAME": "STARLINK-35447", "OBJECT_ID": "2025-270B", "EPOCH": "2025-12-12T06:00:00.999648", "MEAN_MOTION": 15.50619143, "ECCENTRICITY": 0.00019812, "INCLINATION": 42.9999, "RA_OF_ASC_NODE": 195.5916, "ARG_OF_PERICENTER": 278.8889, "MEAN_ANOMALY": 255.2166, "EPHEMERIS_TYPE": 0, "CLASSIFICATION_TYPE": "U", "NORAD_CAT_ID": 66589, "ELEMENT_SET_NO": 999, "REV_AT_EPOCH": 443, "BSTAR": -0.0014411082, "MEAN_MOTION_DOT": -0.00084107, "MEAN_MOTION_DDOT": 0}, "tle": {"line1": "1 66589U 25270B   25346.25001157 -.00084107  00000+0 -14411-2 0  9995", "line2": "2 66589  42.9999 195.5916 0001981 278.8889 255.2166 15.50619143  4436"}}, "geometry": {"type": "Point", "coordinates": [153.69500926509275, -30.24633869142858]}}, {"type": "Feature", "properties": {"norad_id": 66590, "name": "STARLINK-35429", "group": "last-30-days", "lat": -31.25222322739409, "lon": 151.80107285263938, "alt_km": 416.9770868223395, "timestamp": "2025-12-12T18:57:42.885777+00:00", "meta": {"OBJECT_NAME": "STARLINK-35429", "OBJECT_ID": "2025-270C", "EPOCH": "2025-12-12T06:00:00.999648", "MEAN_MOTION": 15.5068908, "ECCENTRICITY": 0.00020381, "INCLINATION": 43, "RA_OF_ASC_NODE": 195.5971, "ARG_OF_PERICENTER": 255.8339, "MEAN_ANOMALY": 276.2412, "EPHEMERIS_TYPE": 0, "CLASSIFICATION_TYPE": "U", "NORAD_CAT_ID": 66590, "ELEMENT_SET_NO": 999, "REV_AT_EPOCH": 443, "BSTAR": -0.0019608157, "MEAN_MOTION_DOT": -0.00114166, "MEAN_MOTION_DDOT": 0}, "tle": {"line1": "1 66590U 25270C   25346.25001157 -.00114166  00000+0 -19608-2 0  9999", "line2": "2 66590  43.0000 195.5971 0002038 255.8339 276.2412 15.50689080  4437"}}, "geometry": {"type": "Point", "coordinates": [151.80107285263938, -31.25222322739409]}}, {"type": "Feature", "properties": {"norad_id": 66591, "name": "STARLINK-36058", "group": "last-30-days", "lat": -29.143725352409138, "lon": 155.67264675708367, "alt_km": 416.31079986724853, "timestamp": "2025-12-12T18:57:42.885787+00:00", "meta": {"OBJECT_NAME": "STARLINK-36058", "OBJECT_ID": "2025-270D", "EPOCH": "2025-12-12T06:00:00.999648", "MEAN_MOTION": 15.50649289, "ECCENTRICITY": 0.0002277, "INCLINATION": 42.9997, "RA_OF_ASC_NODE": 195.5867, "ARG_OF_PERICENTER": 266.7121, "MEAN_ANOMALY": 269.2669, "EPHEMERIS_TYPE": 0, "CLASSIFICATION_TYPE": "U", "NORAD_CAT_ID": 66591, "ELEMENT_SET_NO": 999, "REV_AT_EPOCH": 432, "BSTAR": 0.00031485927, "MEAN_MOTION_DOT": 0.00018219, "MEAN_MOTION_DDOT": 0}, "tle": {"line1": "1 66591U 25270D   25346.25001157  .00018219  00000+0  31486-3 0  9999", "line2": "2 66591  42.9997 195.5867 0002277 266.7121 269.2669 15.50649289  4321"}}, "geometry": {"type": "Point", "coordinates": [155.67264675708367, -29.143725352409138]}}, {"type": "Feature", "properties": {"norad_id": 66592, "name": "STARLINK-36066", "group": "last-30-days", "lat": -28.761544063513206, "lon": 156.33699374212105, "alt_km": 421.4082483264938, "timestamp": "2025-12-12T18:57:42.885799+00:00", "meta": {"OBJECT_NAME": "STARLINK-36066", "OBJECT_ID": "2025-270E", "EPOCH": "2025-12-12T06:00:00.999648", "MEAN_MOTION": 15.51034998, "ECCENTRICITY": 0.00014052, "INCLINATION": 43, "RA_OF_ASC_NODE": 195.5818, "ARG_OF_PERICENTER": 255.0543, "MEAN_ANOMALY": 282.8238, "EPHEMERIS_TYPE": 0, "CLASSIFICATION_TYPE": "U", "NORAD_CAT_ID": 66592, "ELEMENT_SET_NO": 999, "REV_AT_EPOCH": 422, "BSTAR": -0.031583993, "MEAN_MOTION_DOT": -0.01684448, "MEAN_MOTION_DDOT": 0}, "tle": {"line1": "1 66592U 25270E   25346.25001157 -.01684448  00000+0 -31584-1 0  9993", "line2": "2 66592  43.0000 195.5818 0001405 255.0543 282.8238 15.51034998  4224"}}, "geometry": {"type": "Point", "coordinates": [156.33699374212105, -28.761544063513206]}}, {"type": "Feature", "properties": {"norad_id": 66593, "name": "STARLINK-36031", "group": "last-30-days", "lat": -27.054540959780503, "lon": 159.18219560058327, "alt_km": 417.3361655762719, "timestamp": "2025-12-12T18:57:42.885810+00:00", "meta": {"OBJECT_NAME": "STARLINK-36031", "OBJECT_ID": "2025-270F", "EPOCH": "2025-12-12T06:00:00.999648", "MEAN_MOTION": 15.50801232, "ECCENTRICITY": 0.00016761, "INCLINATION": 42.9999, "RA_OF_ASC_NODE": 195.5772, "ARG_OF_PERICENTER": 276.1104, "MEAN_ANOMALY": 263.8093, "EPHEMERIS_TYPE": 0, "CLASSIFICATION_TYPE": "U", "NORAD_CAT_ID": 66593, "ELEMENT_SET_NO": 999, "REV_AT_EPOCH": 432, "BSTAR": -0.0075553646, "MEAN_MOTION_DOT": -0.0042379, "MEAN_MOTION_DDOT": 0}, "tle": {"line1": "1 66593U 25270F   25346.25001157 -.00423790  00000+0 -75554-2 0  9990", "line2": "2 66593  42.9999 195.5772 0001676 276.1104 263.8093 15.50801232  4327"}}, "geometry": {"type": "Point", "coordinates": [159.18219560058327, -27.054540959780503]}}, {"type": "Feature", "properties": {"norad_id": 66594, "name": "STARLINK-36032", "group": "last-30-days", "lat": -25.96490697555588, "lon": 160.90661267335102, "alt_km": 416.46371278157767, "timestamp": "2025-12-12T18:57:42.885822+00:00", "meta": {"OBJECT_NAME": "STARLINK-36032", "OBJECT_ID": "2025-270G", "EPOCH": "2025-12-12T06:00:00.999648", "MEAN_MOTION": 15.50561724, "ECCENTRICITY": 0.00019387, "INCLINATION": 42.9999, "RA_OF_ASC_NODE": 195.5726, "ARG_OF_PERICENTER": 275.1193, "MEAN_ANOMALY": 266.6716, "EPHEMERIS_TYPE": 0, "CLASSIFICATION_TYPE": "U", "NORAD_CAT_ID": 66594, "ELEMENT_SET_NO": 999, "REV_AT_EPOCH": 405, "BSTAR": 0.00034109228, "MEAN_MOTION_DOT": 0.00019707, "MEAN_MOTION_DDOT": 0}, "tle": {"line1": "1 66594U 25270G   25346.25001157  .00019707  00000+0  34109-3 0  9990", "line2": "2 66594  42.9999 195.5726 0001938 275.1193 266.6716 15.50561724  4057"}}, "geometry": {"type": "Point", "coordinates": [160.90661267335102, -25.96490697555588]}}, {"type": "Feature", "properties": {"norad_id": 66595, "name": "STARLINK-35711", "group": "last-30-days", "lat": -24.90980249790471, "lon": 162.51597999606597, "alt_km": 416.7399505255653, "timestamp": "2025-12-12T18:57:42.885832+00:00", "meta": {"OBJECT_NAME": "STARLINK-35711", "OBJECT_ID": "2025-270H", "EPOCH": "2025-12-12T06:00:00.999648", "MEAN_MOTION": 15.50559008, "ECCENTRICITY": 0.0001228, "INCLINATION": 42.9998, "RA_OF_ASC_NODE": 195.5673, "ARG_OF_PERICENTER": 271.1212, "MEAN_ANOMALY": 272.4553, "EPHEMERIS_TYPE": 0, "CLASSIFICATION_TYPE": "U", "NORAD_CAT_ID": 66595, "ELEMENT_SET_NO": 999, "REV_AT_EPOCH": 443, "BSTAR": 0.00075586066, "MEAN_MOTION_DOT": 0.0004422, "MEAN_MOTION_DDOT": 0}, "tle": {"line1": "1 66595U 25270H   25346.25001157  .00044220  00000+0  75586-3 0  9993", "line2": "2 66595  42.9998 195.5673 0001228 271.1212 272.4553 15.50559008  4436"}}, "geometry": {"type": "Point", "coordinates": [162.51597999606597, -24.90980249790471]}}, {"type": "Feature", "properties": {"norad_id": 66596, "name": "STARLINK-35811", "group": "last-30-days", "lat": -31.374563275291255, "lon": 151.56292219226023, "alt_km": 434.0326586205201, "timestamp": "2025-12-12T18:57:42.885842+00:00", "meta": {"OBJECT_NAME": "STARLINK-35811", "OBJECT_ID": "2025-270J", "EPOCH": "2025-12-12T06:00:00.999648", "MEAN_MOTION": 15.47181646, "ECCENTRICITY": 0.00013465, "INCLINATION": 42.9994, "RA_OF_ASC_NODE": 195.5749, "ARG_OF_PERICENTER": 261.7146, "MEAN_ANOMALY": 279.2464, "EPHEMERIS_TYPE": 0, "CLASSIFICATION_TYPE": "U", "NORAD_CAT_ID": 66596, "ELEMENT_SET_NO": 999, "REV_AT_EPOCH": 443, "BSTAR": -0.045199005, "MEAN_MOTION_DOT": -0.02088437, "MEAN_MOTION_DDOT": 0}, "tle": {"line1": "1 66596U 25270J   25346.25001157 -.02088437  00000+0 -45199-1 0  9991", "line2": "2 66596  42.9994 195.5749 0001346 261.7146 279.2464 15.47181646  4430"}}, "geometry": {"type": "Point", "coordinates": [151.56292219226023, -31.374563275291255]}}, {"type": "Feature", "properties": {"norad_id": 66597, "name": "STARLINK-35820", "group": "last-30-days", "lat": -22.523151894898746, "lon": 165.9738692550821, "alt_km": 416.25434049785054, "timestamp": "2025-12-12T18:57:42.885852+00:00", "meta": {"OBJECT_NAME": "STARLINK-35820", "OBJECT_ID": "2025-270K", "EPOCH": "2025-12-12T06:00:00.999648", "MEAN_MOTION": 15.50574327, "ECCENTRICITY": 0.00018838, "INCLINATION": 43.0001, "RA_OF_ASC_NODE": 195.5579, "ARG_OF_PERICENTER": 275.01, "MEAN_ANOMALY": 272.5216, "EPHEMERIS_TYPE": 0, "CLASSIFICATION_TYPE": "U", "NORAD_CAT_ID": 66597, "ELEMENT_SET_NO": 999, "REV_AT_EPOCH": 443, "BSTAR": 0.00049855638, "MEAN_MOTION_DOT": 0.0002901, "MEAN_MOTION_DDOT": 0}, "tle": {"line1": "1 66597U 25270K   25346.25001157  .00029010  00000+0  49856-3 0  9996", "line2": "2 66597  43.0001 195.5579 0001883 275.0100 272.5216 15.50574327  4434"}}, "geometry": {"type": "Point", "coordinates": [165.9738692550821, -22.523151894898746]}}]}